ONEWEB-0144             
1 47290U 20100AJ  24194.55412926 -.00000283  00000+0 -82210-3 0  9999
2 47290  87.8954 130.9646 0001658  80.0543 280.0773 13.12444169172141
ONEWEB-0146             
1 47292U 20100AL  24194.52168954  .00000216  00000+0  56580-3 0  9992
2 47292  87.8952 130.9792 0002495  78.4211 281.7197 13.12441323172244
ONEWEB-0147             
1 47293U 20100AM  24194.56385880  .00000002  00000+0 -28997-4 0  9992
2 47293  87.8950 130.9635 0001901  69.9386 290.1947 13.12443329172142
ONEWEB-0115             
1 48042U 21025A   24194.45646621 -.00000200  00000+0 -58200-3 0  9993
2 48042  87.8923 100.5059 0002072  74.7465 285.3893 13.13468994161083
ONEWEB-0152             
1 48043U 21025B   24194.46917246 -.00000229  00000+0 -66148-3 0  9990
2 48043  87.8926 100.5020 0002077  75.7166 284.4193 13.13469552161049
ONEWEB-0153             
1 48044U 21025C   24194.44694343  .00000019  00000+0  18127-4 0  9999
2 48044  87.8929 100.4953 0001863  77.4508 282.6829 13.13467442161039
ONEWEB-0154             
1 48045U 21025D   24194.44377020 -.00000016  00000+0 -79248-4 0  9990
2 48045  87.8924 100.5065 0001947  75.1096 285.0249 13.13468121160992
